{
  "type": "FeatureCollection",
  "features": [
    {
      "type": "Feature",
      "properties": {
        "norad_id": 38149,
        "name": "FENGYUN 1C DEB",
        "group": "fengyun-1c-debris",
        "lat": 31.201256944831975,
        "lon": -11.839082838334026,
        "alt_km": 799.0215280982047,
        "timestamp": "2025-12-27T17:24:57.695561+00:00",
        "meta_object_name": "FENGYUN 1C DEB",
        "meta_object_id": "1999-025EQW",
        "meta_epoch": "2025-12-24T16:51:08.815968",
        "meta_mean_motion": 14.25930229,
        "meta_eccentricity": 0.00785452,
        "meta_inclination": 98.3575,
        "meta_ra_of_asc_node": 350.3849,
        "meta_arg_of_pericenter": 126.3504,
        "meta_mean_anomaly": 234.4959,
        "meta_ephemeris_type": 0,
        "meta_classification_type": "U",
        "meta_norad_cat_id": 38149,
        "meta_element_set_no": 999,
        "meta_rev_at_epoch": 70658,
        "meta_bstar": 0.0001943926,
        "meta_mean_motion_dot": 4.38e-06,
        "meta_mean_motion_ddot": 0,
        "tle_line1": "1 38149U 99025EQW 25358.70218537  .00000438  00000+0  19439-3 0  9999",
        "tle_line2": "2 38149  98.3575 350.3849 0078545 126.3504 234.4959 14.25930229706585"
      },
      "geometry": {
        "type": "Point",
        "coordinates": [
          -11.839082838334026,
          31.201256944831975
        ]
      }
    },
    {
      "type": "Feature",
      "properties": {
        "norad_id": 38155,
        "name": "FENGYUN 1C DEB",
        "group": "fengyun-1c-debris",
        "lat": -71.34653677817899,
        "lon": -68.36926118488914,
        "alt_km": 879.4826031310713,
        "timestamp": "2025-12-27T17:24:57.695570+00:00",
        "meta_object_name": "FENGYUN 1C DEB",
        "meta_object_id": "1999-025ERC",
        "meta_epoch": "2025-12-18T23:08:16.383264",
        "meta_mean_motion": 14.25112386,
        "meta_eccentricity": 0.00979258,
        "meta_inclination": 98.4473,
        "meta_ra_of_asc_node": 257.0769,
        "meta_arg_of_pericenter": 108.7402,
        "meta_mean_anomaly": 252.4435,
        "meta_ephemeris_type": 0,
        "meta_classification_type": "U",
        "meta_norad_cat_id": 38155,
        "meta_element_set_no": 999,
        "meta_rev_at_epoch": 63864,
        "meta_bstar": 0.0016814228,
        "meta_mean_motion_dot": 4.107e-05,
        "meta_mean_motion_ddot": 0,
        "tle_line1": "1 38155U 99025ERC 25352.96407851  .00004107  00000+0  16814-2 0  9997",
        "tle_line2": "2 38155  98.4473 257.0769 0097925 108.7402 252.4435 14.25112386638644"
      },
      "geometry": {
        "type": "Point",
        "coordinates": [
          -68.36926118488914,
          -71.34653677817899
        ]
      }
    },
    {
      "type": "Feature",
      "properties": {
        "norad_id": 38157,
        "name": "FENGYUN 1C DEB",
        "group": "fengyun-1c-debris",
        "lat": 17.5633101298235,
        "lon": 93.1987361024344,
        "alt_km": 813.2230591017078,
        "timestamp": "2025-12-27T17:24:57.695580+00:00",
        "meta_object_name": "FENGYUN 1C DEB",
        "meta_object_id": "1999-025ERE",
        "meta_epoch": "2025-12-27T04:51:45.217152",
        "meta_mean_motion": 14.21797614,
        "meta_eccentricity": 0.0274314,
        "meta_inclination": 99.6564,
        "meta_ra_of_asc_node": 269.5369,
        "meta_arg_of_pericenter": 73.8206,
        "meta_mean_anomaly": 289.297,
        "meta_ephemeris_type": 0,
        "meta_classification_type": "U",
        "meta_norad_cat_id": 38157,
        "meta_element_set_no": 999,
        "meta_rev_at_epoch": 76453,
        "meta_bstar": 0.00086125,
        "meta_mean_motion_dot": 2.726e-05,
        "meta_mean_motion_ddot": 0,
        "tle_line1": "1 38157U 99025ERE 25361.20260668  .00002726  00000+0  86125-3 0  9997",
        "tle_line2": "2 38157  99.6564 269.5369 0274314  73.8206 289.2970 14.21797614764536"
      },
      "geometry": {
        "type": "Point",
        "coordinates": [
          93.1987361024344,
          17.5633101298235
        ]
      }
    },
    {
      "type": "Feature",
      "properties": {
        "norad_id": 38159,
        "name": "FENGYUN 1C DEB",
        "group": "fengyun-1c-debris",
        "lat": -36.930457715111416,
        "lon": -99.17753943390102,
        "alt_km": 849.7386642381653,
        "timestamp": "2025-12-27T17:24:57.695590+00:00",
        "meta_object_name": "FENGYUN 1C DEB",
        "meta_object_id": "1999-025ERG",
        "meta_epoch": "2025-12-04T22:05:20.152032",
        "meta_mean_motion": 14.03448484,
        "meta_eccentricity": 0.005704,
        "meta_inclination": 99.3156,
        "meta_ra_of_asc_node": 230.39,
        "meta_arg_of_pericenter": 2.347,
        "meta_mean_anomaly": 357.7952,
        "meta_ephemeris_type": 0,
        "meta_classification_type": "U",
        "meta_norad_cat_id": 38159,
        "meta_element_set_no": 999,
        "meta_rev_at_epoch": 83002,
        "meta_bstar": 0.0010527,
        "meta_mean_motion_dot": 1.625e-05,
        "meta_mean_motion_ddot": 0,
        "tle_line1": "1 38159U 99025ERG 25338.92037213  .00001625  00000+0  10527-2 0  9999",
        "tle_line2": "2 38159  99.3156 230.3900 0057040   2.3470 357.7952 14.03448484830021"
      },
      "geometry": {
        "type": "Point",
        "coordinates": [
          -99.17753943390102,
          -36.930457715111416
        ]
      }
    },
    {
      "type": "Feature",
      "properties": {
        "norad_id": 38163,
        "name": "FENGYUN 1C DEB",
        "group": "fengyun-1c-debris",
        "lat": 13.77410167755446,
        "lon": 36.109343704357286,
        "alt_km": 929.2537491338189,
        "timestamp": "2025-12-27T17:24:57.695606+00:00",
        "meta_object_name": "FENGYUN 1C DEB",
        "meta_object_id": "1999-025ERL",
        "meta_epoch": "2025-12-24T07:21:56.877984",
        "meta_mean_motion": 14.05946513,
        "meta_eccentricity": 0.00764665,
        "meta_inclination": 99.1277,
        "meta_ra_of_asc_node": 34.9241,
        "meta_arg_of_pericenter": 210.1825,
        "meta_mean_anomaly": 149.4926,
        "meta_ephemeris_type": 0,
        "meta_classification_type": "U",
        "meta_norad_cat_id": 38163,
        "meta_element_set_no": 999,
        "meta_rev_at_epoch": 24704,
        "meta_bstar": 0.00077703552,
        "meta_mean_motion_dot": 1.261e-05,
        "meta_mean_motion_ddot": 0,
        "tle_line1": "1 38163U 99025ERL 25358.30690831  .00001261  00000+0  77704-3 0  9996",
        "tle_line2": "2 38163  99.1277  34.9241 0076466 210.1825 149.4926 14.05946513247049"
      },
      "geometry": {
        "type": "Point",
        "coordinates": [
          36.109343704357286,
          13.77410167755446
        ]
      }
    },
    {
      "type": "Feature",
      "properties": {
        "norad_id": 38166,
        "name": "FENGYUN 1C DEB",
        "group": "fengyun-1c-debris",
        "lat": 13.080530753451283,
        "lon": -72.40404452664457,
        "alt_km": 825.1529485491037,
        "timestamp": "2025-12-27T17:24:57.695618+00:00",
        "meta_object_name": "FENGYUN 1C DEB",
        "meta_object_id": "1999-025ERP",
        "meta_epoch": "2025-12-25T17:39:29.269152",
        "meta_mean_motion": 14.31108062,
        "meta_eccentricity": 0.00517597,
        "meta_inclination": 99.0777,
        "meta_ra_of_asc_node": 103.3893,
        "meta_arg_of_pericenter": 5.2769,
        "meta_mean_anomaly": 354.8948,
        "meta_ephemeris_type": 0,
        "meta_classification_type": "U",
        "meta_norad_cat_id": 38166,
        "meta_element_set_no": 999,
        "meta_rev_at_epoch": 63958,
        "meta_bstar": 0.0026339768,
        "meta_mean_motion_dot": 7.006e-05,
        "meta_mean_motion_ddot": 0,
        "tle_line1": "1 38166U 99025ERP 25359.73575543  .00007006  00000+0  26340-2 0  9991",
        "tle_line2": "2 38166  99.0777 103.3893 0051759   5.2769 354.8948 14.31108062639586"
      },
      "geometry": {
        "type": "Point",
        "coordinates": [
          -72.40404452664457,
          13.080530753451283
        ]
      }
    },
    {
      "type": "Feature",
      "properties": {
        "norad_id": 38169,
        "name": "FENGYUN 1C DEB",
        "group": "fengyun-1c-debris",
        "lat": -27.649694268088005,
        "lon": -17.77362921097109,
        "alt_km": 646.446343262629,
        "timestamp": "2025-12-27T17:24:57.695629+00:00",
        "meta_object_name": "FENGYUN 1C DEB",
        "meta_object_id": "1999-025ERS",
        "meta_epoch": "2025-12-17T04:37:40.598400",
        "meta_mean_motion": 14.71570377,
        "meta_eccentricity": 0.00320132,
        "meta_inclination": 98.9779,
        "meta_ra_of_asc_node": 325.865,
        "meta_arg_of_pericenter": 54.7995,
        "meta_mean_anomaly": 305.6199,
        "meta_ephemeris_type": 0,
        "meta_classification_type": "U",
        "meta_norad_cat_id": 38169,
        "meta_element_set_no": 999,
        "meta_rev_at_epoch": 61334,
        "meta_bstar": 0.002130707,
        "meta_mean_motion_dot": 0.00013312,
        "meta_mean_motion_ddot": 0,
        "tle_line1": "1 38169U 99025ERS 25351.19283100  .00013312  00000+0  21307-2 0  9996",
        "tle_line2": "2 38169  98.9779 325.8650 0032013  54.7995 305.6199 14.71570377613347"
      },
      "geometry": {
        "type": "Point",
        "coordinates": [
          -17.77362921097109,
          -27.649694268088005
        ]
      }
    }
  ]
}